{"type": "FeatureCollection", "features": [ {"type": "Feature", "properties": {"norad_id": 47051, "name": "COSMOS 2251 DEB", "group": "cosmos-2251-debris", "lat": -55.35942392902996, "lon": 13.049538851665805, "alt_km": 824.46100575134, "timestamp": "2025-12-21T20:41:08.353816+00:00", "meta": {"OBJECT_NAME": "COSMOS 2251 DEB", "OBJECT_ID": "1993-036BXF", "EPOCH": "2025-12-13T06:55:53.868288", "MEAN_MOTION": 13.67117141, "ECCENTRICITY": 0.03401033, "INCLINATION": 74.1001, "RA_OF_ASC_NODE": 182.6908, "ARG_OF_PERICENTER": 296.1774, "MEAN_ANOMALY": 246.9893, "EPHEMERIS_TYPE": 0, "CLASSIFICATION_TYPE": "U", "NORAD_CAT_ID": 47051, "ELEMENT_SET_NO": 999, "REV_AT_EPOCH": 59945, "BSTAR": 0.0019326179, "MEAN_MOTION_DOT": 2.391e-05, "MEAN_MOTION_DDOT": 0}, "tle": {"line1": "1 47051U 93036BXF 25347.28881792  .00002391  00000+0  19326-2 0  9991", "line2": "2 47051  74.1001 182.6908 0340103 296.1774 246.9893 13.67117141599458"}}, "geometry": {"type": "Point", "coordinates": [13.049538851665805, -55.35942392902996]}}, {"type": "Feature", "properties": {"norad_id": 47052, "name": "COSMOS 2251 DEB", "group": "cosmos-2251-debris", "lat": 25.017170950980372, "lon": -28.71953748256236, "alt_km": 731.2952718513143, "timestamp": "2025-12-21T20:41:08.353825+00:00", "meta": {"OBJECT_NAME": "COSMOS 2251 DEB", "OBJECT_ID": "1993-036BXG", "EPOCH": "2025-12-13T17:42:34.547904", "MEAN_MOTION": 14.35482778, "ECCENTRICITY": 0.00580984, "INCLINATION": 74.0478, "RA_OF_ASC_NODE": 338.4955, "ARG_OF_PERICENTER": 52.4094, "MEAN_ANOMALY": 127.807, "EPHEMERIS_TYPE": 0, "CLASSIFICATION_TYPE": "U", "NORAD_CAT_ID": 47052, "ELEMENT_SET_NO": 999, "REV_AT_EPOCH": 61803, "BSTAR": 0.00037288685, "MEAN_MOTION_DOT": 1.067e-05, "MEAN_MOTION_DDOT": 0}, "tle": {"line1": "1 47052U 93036BXG 25347.73789986  .00001067  00000+0  37289-3 0  9992", "line2": "2 47052  74.0478 338.4955 0058098  52.4094 127.8070 14.35482778618033"}}, "geometry": {"type": "Point", "coordinates": [-28.71953748256236, 25.017170950980372]}}, {"type": "Feature", "properties": {"norad_id": 47053, "name": "COSMOS 2251 DEB", "group": "cosmos-2251-debris", "lat": -13.181053779227215, "lon": 63.13575016663157, "alt_km": 1259.4609724966313, "timestamp": "2025-12-21T20:41:08.353835+00:00", "meta": {"OBJECT_NAME": "COSMOS 2251 DEB", "OBJECT_ID": "1993-036BXH", "EPOCH": "2025-12-16T00:20:00.787200", "MEAN_MOTION": 13.59681102, "ECCENTRICITY": 0.03769313, "INCLINATION": 74.0586, "RA_OF_ASC_NODE": 248.7599, "ARG_OF_PERICENTER": 61.5734, "MEAN_ANOMALY": 314.7883, "EPHEMERIS_TYPE": 0, "CLASSIFICATION_TYPE": "U", "NORAD_CAT_ID": 47053, "ELEMENT_SET_NO": 999, "REV_AT_EPOCH": 28933, "BSTAR": 0.0014494241, "MEAN_MOTION_DOT": 1.7e-05, "MEAN_MOTION_DDOT": 0}, "tle": {"line1": "1 47053U 93036BXH 25350.01389800  .00001700  00000+0  14494-2 0  9995", "line2": "2 47053  74.0586 248.7599 0376931  61.5734 314.7883 13.59681102289335"}}, "geometry": {"type": "Point", "coordinates": [63.13575016663157, -13.181053779227215]}}, {"type": "Feature", "properties": {"norad_id": 47059, "name": "COSMOS 2251 DEB", "group": "cosmos-2251-debris", "lat": 40.9882130398695, "lon": -129.10411201013713, "alt_km": 513.2644643802514, "timestamp": "2025-12-21T20:41:08.353844+00:00", "meta": {"OBJECT_NAME": "COSMOS 2251 DEB", "OBJECT_ID": "1993-036BXP", "EPOCH": "2025-12-16T01:10:48.054720", "MEAN_MOTION": 15.13144812, "ECCENTRICITY": 0.00128667, "INCLINATION": 73.98, "RA_OF_ASC_NODE": 228.534, "ARG_OF_PERICENTER": 42.2566, "MEAN_ANOMALY": 26.5019, "EPHEMERIS_TYPE": 0, "CLASSIFICATION_TYPE": "U", "NORAD_CAT_ID": 47059, "ELEMENT_SET_NO": 999, "REV_AT_EPOCH": 8355, "BSTAR": 0.0018804977, "MEAN_MOTION_DOT": 0.00033522, "MEAN_MOTION_DDOT": 0}, "tle": {"line1": "1 47059U 93036BXP 25350.04916730  .00033522  00000+0  18805-2 0  9999", "line2": "2 47059  73.9800 228.5340 0012866  42.2566  26.5019 15.13144812 83550"}}, "geometry": {"type": "Point", "coordinates": [-129.10411201013713, 40.9882130398695]}}, {"type": "Feature", "properties": {"norad_id": 47062, "name": "COSMOS 2251 DEB", "group": "cosmos-2251-debris", "lat": 53.34423032523688, "lon": -139.41191235413493, "alt_km": 874.6949616718275, "timestamp": "2025-12-21T20:41:08.353852+00:00", "meta": {"OBJECT_NAME": "COSMOS 2251 DEB", "OBJECT_ID": "1993-036BXS", "EPOCH": "2025-12-13T23:56:30.676992", "MEAN_MOTION": 13.71952164, "ECCENTRICITY": 0.03233862, "INCLINATION": 74.0831, "RA_OF_ASC_NODE": 76.1003, "ARG_OF_PERICENTER": 201.6929, "MEAN_ANOMALY": 337.1469, "EPHEMERIS_TYPE": 0, "CLASSIFICATION_TYPE": "U", "NORAD_CAT_ID": 47062, "ELEMENT_SET_NO": 999, "REV_AT_EPOCH": 55619, "BSTAR": 0.0017198262, "MEAN_MOTION_DOT": 2.244e-05, "MEAN_MOTION_DDOT": 0}, "tle": {"line1": "1 47062U 93036BXS 25347.99757728  .00002244  00000+0  17198-2 0  9994", "line2": "2 47062  74.0831  76.1003 0323386 201.6929 337.1469 13.71952164556193"}}, "geometry": {"type": "Point", "coordinates": [-139.41191235413493, 53.34423032523688]}}, {"type": "Feature", "properties": {"norad_id": 47068, "name": "COSMOS 2251 DEB", "group": "cosmos-2251-debris", "lat": 29.11807706134573, "lon": -164.57573586929612, "alt_km": 719.6171906550744, "timestamp": "2025-12-21T20:41:08.353862+00:00", "meta": {"OBJECT_NAME": "COSMOS 2251 DEB", "OBJECT_ID": "1993-036BXY", "EPOCH": "2025-12-18T06:37:53.129568", "MEAN_MOTION": 14.53187379, "ECCENTRICITY": 0.00182878, "INCLINATION": 74.0232, "RA_OF_ASC_NODE": 193.012, "ARG_OF_PERICENTER": 279.6749, "MEAN_ANOMALY": 80.2347, "EPHEMERIS_TYPE": 0, "CLASSIFICATION_TYPE": "U", "NORAD_CAT_ID": 47068, "ELEMENT_SET_NO": 999, "REV_AT_EPOCH": 61837, "BSTAR": 0.00067889, "MEAN_MOTION_DOT": 2.791e-05, "MEAN_MOTION_DDOT": 0}, "tle": {"line1": "1 47068U 93036BXY 25352.27630937  .00002791  00000+0  67889-3 0  9999", "line2": "2 47068  74.0232 193.0120 0018287 279.6749  80.2347 14.53187379618378"}}, "geometry": {"type": "Point", "coordinates": [-164.57573586929612, 29.11807706134573]}}, {"type": "Feature", "properties": {"norad_id": 47073, "name": "COSMOS 2251 DEB", "group": "cosmos-2251-debris", "lat": 42.504783598766636, "lon": -158.8665381909233, "alt_km": 990.6590234772093, "timestamp": "2025-12-21T20:41:08.353890+00:00", "meta": {"OBJECT_NAME": "COSMOS 2251 DEB", "OBJECT_ID": "1993-036BYD", "EPOCH": "2025-12-20T05:09:22.277088", "MEAN_MOTION": 14.04735867, "ECCENTRICITY": 0.0161533, "INCLINATION": 74.0811, "RA_OF_ASC_NODE": 188.8357, "ARG_OF_PERICENTER": 225.3344, "MEAN_ANOMALY": 133.4535, "EPHEMERIS_TYPE": 0, "CLASSIFICATION_TYPE": "U", "NORAD_CAT_ID": 47073, "ELEMENT_SET_NO": 999, "REV_AT_EPOCH": 60466, "BSTAR": 0.00045488, "MEAN_MOTION_DOT": 7.94e-06, "MEAN_MOTION_DDOT": 0}, "tle": {"line1": "1 47073U 93036BYD 25354.21484117  .00000794  00000+0  45488-3 0  9990", "line2": "2 47073  74.0811 188.8357 0161533 225.3344 133.4535 14.04735867604667"}}, "geometry": {"type": "Point", "coordinates": [-158.8665381909233, 42.504783598766636]}}, {"type": "Feature", "properties": {"norad_id": 47074, "name": "COSMOS 2251 DEB", "group": "cosmos-2251-debris", "lat": 45.556658404235236, "lon": 95.12476703964548, "alt_km": 871.5349782613202, "timestamp": "2025-12-21T20:41:08.353899+00:00", "meta": {"OBJECT_NAME": "COSMOS 2251 DEB", "OBJECT_ID": "1993-036BYE", "EPOCH": "2025-12-16T13:32:26.153376", "MEAN_MOTION": 14.35650419, "ECCENTRICITY": 0.01449048, "INCLINATION": 74.0928, "RA_OF_ASC_NODE": 301.7157, "ARG_OF_PERICENTER": 328.8455, "MEAN_ANOMALY": 153.2821, "EPHEMERIS_TYPE": 0, "CLASSIFICATION_TYPE": "U", "NORAD_CAT_ID": 47074, "ELEMENT_SET_NO": 999, "REV_AT_EPOCH": 2737, "BSTAR": 0.0011411657, "MEAN_MOTION_DOT": 3.683e-05, "MEAN_MOTION_DDOT": 0}, "tle": {"line1": "1 47074U 93036BYE 25350.56419159  .00003683  00000+0  11412-2 0  9998", "line2": "2 47074  74.0928 301.7157 0144904 328.8455 153.2821 14.35650419 27374"}}, "geometry": {"type": "Point", "coordinates": [95.12476703964548, 45.556658404235236]}}, {"type": "Feature", "properties": {"norad_id": 47116, "name": "COSMOS 2251 DEB", "group": "cosmos-2251-debris", "lat": -54.62301307256865, "lon": 66.00858142301242, "alt_km": 574.5122889350214, "timestamp": "2025-12-21T20:41:08.353908+00:00", "meta": {"OBJECT_NAME": "COSMOS 2251 DEB", "OBJECT_ID": "1993-036BYJ", "EPOCH": "2025-12-17T22:44:25.492992", "MEAN_MOTION": 14.98433598, "ECCENTRICITY": 0.00213127, "INCLINATION": 74.0233, "RA_OF_ASC_NODE": 230.1515, "ARG_OF_PERICENTER": 323.4041, "MEAN_ANOMALY": 47.2172, "EPHEMERIS_TYPE": 0, "CLASSIFICATION_TYPE": "U", "NORAD_CAT_ID": 47116, "ELEMENT_SET_NO": 999, "REV_AT_EPOCH": 59589, "BSTAR": 0.0014083931, "MEAN_MOTION_DOT": 0.000169, "MEAN_MOTION_DDOT": 0}, "tle": {"line1": "1 47116U 93036BYJ 25351.94751728  .00016900  00000+0  14084-2 0  9993", "line2": "2 47116  74.0233 230.1515 0021312 323.4041  47.2172 14.98433598595896"}}, "geometry": {"type": "Point", "coordinates": [66.00858142301242, -54.62301307256865]}}, {"type": "Feature", "properties": {"norad_id": 53093, "name": "COSMOS 2251 DEB", "group": "cosmos-2251-debris", "lat": 8.405772514492897, "lon": -73.02839861542371, "alt_km": 739.6934954586177, "timestamp": "2025-12-21T20:41:08.353917+00:00", "meta": {"OBJECT_NAME": "COSMOS 2251 DEB", "OBJECT_ID": "1993-036BYP", "EPOCH": "2025-12-21T05:39:33.659136", "MEAN_MOTION": 14.41922402, "ECCENTRICITY": 0.001973, "INCLINATION": 74.0371, "RA_OF_ASC_NODE": 285.7074, "ARG_OF_PERICENTER": 1.5166, "MEAN_ANOMALY": 358.6046, "EPHEMERIS_TYPE": 0, "CLASSIFICATION_TYPE": "U", "NORAD_CAT_ID": 53093, "ELEMENT_SET_NO": 999, "REV_AT_EPOCH": 17848, "BSTAR": 0.00064497, "MEAN_MOTION_DOT": 2.091e-05, "MEAN_MOTION_DDOT": 0}, "tle": {"line1": "1 53093U 93036BYP 25355.23580624  .00002091  00000+0  64497-3 0  9995", "line2": "2 53093  74.0371 285.7074 0019730   1.5166 358.6046 14.41922402178485"}}, "geometry": {"type": "Point", "coordinates": [-73.02839861542371, 8.405772514492897]}}]}